GLOBALSTAR M045         
1 25676U 99019A   25288.84643013 -.00000070  00000+0  21146-3 0  9992
2 25676  51.9980 321.3649 0000493  99.8383  70.9550 12.27066395208203
GLOBALSTAR M019         
1 25677U 99019B   25288.83397619 -.00000068  00000+0  23197-3 0  9995
2 25677  51.9851 100.2519 0001269 161.1234 340.3877 12.13875982199795
GLOBALSTAR M044         
1 25678U 99019C   25288.88161913 -.00000081  00000+0  37887-4 0  9994
2 25678  51.9971  66.5779 0005352 270.3076 257.2302 11.90260790185697
GLOBALSTAR M042         
1 25679U 99019D   25288.69146259 -.00000049  00000+0  40417-3 0  9996
2 25679  52.0012  70.7621 0003259 171.6338 201.9709 12.22089305199999
GLOBALSTAR M025         
1 25770U 99031A   25288.63218921 -.00000085  00000+0 -54887-3 0  9999
2 25770  51.9800 240.2513 0002530 355.3107 175.1009 11.22557762495231
GLOBALSTAR M049         
1 25771U 99031B   25288.70032472 -.00000031  00000+0  11809-2 0  9999
2 25771  51.9867 280.9151 0002593 223.4215 136.6377 11.12119899130834
GLOBALSTAR M047         
1 25772U 99031C   25288.68918926 -.00000057  00000+0  34184-3 0  9994
2 25772  51.9820 266.3958 0016462 108.3766 251.8832 11.31930298484753
GLOBALSTAR M052         
1 25773U 99031D   25288.82136270 -.00000056  00000+0  32739-3 0  9998
2 25773  51.9904  27.6136 0002453  26.8599 122.9447 11.15061243491964
